[
    {
        "Altitude(m)": 564598.5628823809,
        "Argument of Periapsis(deg)": 0.019868973332140504,
        "Eccentricity": 0.0,
        "Inclination(deg)": 53.0,
        "Latitude(deg)": -35.31631694367153,
        "Longitude(deg)": 95.54987673684933,
        "Mean Anomaly(deg)": -46.088821397267154,
        "RAAN(deg)": 229.97043010558406,
        "Satellite Name": "Starlink Shell 1 1029",
        "Satellite Number": 1029,
        "Semi-Major Axis(m)": 6931778.249405717,
        "Time(s)": 570
    },
    {
        "Altitude(m)": 564425.887648744,
        "Argument of Periapsis(deg)": 0.02021755181165174,
        "Eccentricity": 0.0,
        "Inclination(deg)": 53.0,
        "Latitude(deg)": -34.890305609135154,
        "Longitude(deg)": 96.06878085605243,
        "Mean Anomaly(deg)": -45.46199019371049,
        "RAAN(deg)": 229.96991133550657,
        "Satellite Name": "Starlink Shell 1 1029",
        "Satellite Number": 1029,
        "Semi-Major Axis(m)": 6931778.249405717,
        "Time(s)": 580
    },
    {
        "Altitude(m)": 564252.6415445574,
        "Argument of Periapsis(deg)": 0.020566130291162974,
        "Eccentricity": 0.0,
        "Inclination(deg)": 53.0,
        "Latitude(deg)": -34.46169772956554,
        "Longitude(deg)": 96.58193476990088,
        "Mean Anomaly(deg)": -44.83515899015387,
        "RAAN(deg)": 229.96939256542913,
        "Satellite Name": "Starlink Shell 1 1029",
        "Satellite Number": 1029,
        "Semi-Major Axis(m)": 6931778.249405717,
        "Time(s)": 590
    },
    {
        "Altitude(m)": 564078.8908283943,
        "Argument of Periapsis(deg)": 0.020914708770674213,
        "Eccentricity": 0.0,
        "Inclination(deg)": 53.0,
        "Latitude(deg)": -34.03055881112662,
        "Longitude(deg)": 97.08945426452357,
        "Mean Anomaly(deg)": -44.208327786597096,
        "RAAN(deg)": 229.96887379535164,
        "Satellite Name": "Starlink Shell 1 1029",
        "Satellite Number": 1029,
        "Semi-Major Axis(m)": 6931778.249405717,
        "Time(s)": 600
    },
    {
        "Altitude(m)": 563904.7018386584,
        "Argument of Periapsis(deg)": 0.021263287250185448,
        "Eccentricity": 0.0,
        "Inclination(deg)": 53.0,
        "Latitude(deg)": -33.596952886218354,
        "Longitude(deg)": 97.59145427145437,
        "Mean Anomaly(deg)": -43.581496583040405,
        "RAAN(deg)": 229.96835502527415,
        "Satellite Name": "Starlink Shell 1 1029",
        "Satellite Number": 1029,
        "Semi-Major Axis(m)": 6931778.249405717,
        "Time(s)": 610
    },
    {
        "Altitude(m)": 563730.1409639355,
        "Argument of Periapsis(deg)": 0.021611865729696686,
        "Eccentricity": 0.0,
        "Inclination(deg)": 53.0,
        "Latitude(deg)": -33.16094254542493,
        "Longitude(deg)": 98.08804930131518,
        "Mean Anomaly(deg)": -42.95466537948368,
        "RAAN(deg)": 229.9678362551967,
        "Satellite Name": "Starlink Shell 1 1029",
        "Satellite Number": 1029,
        "Semi-Major Axis(m)": 6931778.249405717,
        "Time(s)": 620
    },
    {
        "Altitude(m)": 563555.2746133099,
        "Argument of Periapsis(deg)": 0.02196044420920792,
        "Eccentricity": 0.0,
        "Inclination(deg)": 53.0,
        "Latitude(deg)": -32.722588969714266,
        "Longitude(deg)": 98.57935220418953,
        "Mean Anomaly(deg)": -42.327834175927016,
        "RAAN(deg)": 229.9673174851192,
        "Satellite Name": "Starlink Shell 1 1029",
        "Satellite Number": 1029,
        "Semi-Major Axis(m)": 6931778.249405717,
        "Time(s)": 630
    },
    {
        "Altitude(m)": 563380.1691866744,
        "Argument of Periapsis(deg)": 0.02230902268871916,
        "Eccentricity": 0.0,
        "Inclination(deg)": 53.0,
        "Latitude(deg)": -32.28195196279274,
        "Longitude(deg)": 99.06547545863233,
        "Mean Anomaly(deg)": -41.70100297237034,
        "RAAN(deg)": 229.96679871504173,
        "Satellite Name": "Starlink Shell 1 1029",
        "Satellite Number": 1029,
        "Semi-Major Axis(m)": 6931778.249405717,
        "Time(s)": 640
    },
    {
        "Altitude(m)": 563204.891045007,
        "Argument of Periapsis(deg)": 0.022657601168230398,
        "Eccentricity": 0.0,
        "Inclination(deg)": 53.0,
        "Latitude(deg)": -31.8390899835293,
        "Longitude(deg)": 99.54652994595207,
        "Mean Anomaly(deg)": -41.074171768813514,
        "RAAN(deg)": 229.9662799449643,
        "Satellite Name": "Starlink Shell 1 1029",
        "Satellite Number": 1029,
        "Semi-Major Axis(m)": 6931778.249405717,
        "Time(s)": 650
    },
    {
        "Altitude(m)": 563029.5064806843,
        "Argument of Periapsis(deg)": 0.023006179647741636,
        "Eccentricity": 0.0,
        "Inclination(deg)": 53.0,
        "Latitude(deg)": -31.394060178371546,
        "Longitude(deg)": 100.02262541174947,
        "Mean Anomaly(deg)": -40.44734056525682,
        "RAAN(deg)": 229.96576117488678,
        "Satellite Name": "Starlink Shell 1 1029",
        "Satellite Number": 1029,
        "Semi-Major Axis(m)": 6931778.249405717,
        "Time(s)": 660
    },
    {
        "Altitude(m)": 562854.0816877948,
        "Argument of Periapsis(deg)": 0.023354758127252868,
        "Eccentricity": 0.0,
        "Inclination(deg)": 53.0,
        "Latitude(deg)": -30.94691841368141,
        "Longitude(deg)": 100.49387093332801,
        "Mean Anomaly(deg)": -39.820509361700054,
        "RAAN(deg)": 229.9652424048093,
        "Satellite Name": "Starlink Shell 1 1029",
        "Satellite Number": 1029,
        "Semi-Major Axis(m)": 6931778.249405717,
        "Time(s)": 670
    },
    {
        "Altitude(m)": 562678.6827324883,
        "Argument of Periapsis(deg)": 0.023703336606764106,
        "Eccentricity": 0.0,
        "Inclination(deg)": 53.0,
        "Latitude(deg)": -30.497719307929582,
        "Longitude(deg)": 100.9603738797043,
        "Mean Anomaly(deg)": -39.19367815814333,
        "RAAN(deg)": 229.96472363473188,
        "Satellite Name": "Starlink Shell 1 1029",
        "Satellite Number": 1029,
        "Semi-Major Axis(m)": 6931778.249405717,
        "Time(s)": 680
    },
    {
        "Altitude(m)": 562503.375523367,
        "Argument of Periapsis(deg)": 0.024051915086275345,
        "Eccentricity": 0.0,
        "Inclination(deg)": 53.0,
        "Latitude(deg)": -30.046516263689593,
        "Longitude(deg)": 101.42224038958537,
        "Mean Anomaly(deg)": -38.56684695458666,
        "RAAN(deg)": 229.9642048646544,
        "Satellite Name": "Starlink Shell 1 1029",
        "Satellite Number": 1029,
        "Semi-Major Axis(m)": 6931778.249405717,
        "Time(s)": 690
    },
    {
        "Altitude(m)": 562328.2257819736,
        "Argument of Periapsis(deg)": 0.024400493565786583,
        "Eccentricity": 0.0,
        "Inclination(deg)": 53.0,
        "Latitude(deg)": -29.59336149938279,
        "Longitude(deg)": 101.87957585408117,
        "Mean Anomaly(deg)": -37.94001575102999,
        "RAAN(deg)": 229.9636860945769,
        "Satellite Name": "Starlink Shell 1 1029",
        "Satellite Number": 1029,
        "Semi-Major Axis(m)": 6931778.249405717,
        "Time(s)": 700
    },
    {
        "Altitude(m)": 562153.2990132995,
        "Argument of Periapsis(deg)": 0.024749072045297815,
        "Eccentricity": 0.0,
        "Inclination(deg)": 53.0,
        "Latitude(deg)": -29.13830608072791,
        "Longitude(deg)": 102.3324838909404,
        "Mean Anomaly(deg)": -37.31318454747324,
        "RAAN(deg)": 229.96316732449944,
        "Satellite Name": "Starlink Shell 1 1029",
        "Satellite Number": 1029,
        "Semi-Major Axis(m)": 6931778.249405717,
        "Time(s)": 710
    },
    {
        "Altitude(m)": 561978.6604764428,
        "Argument of Periapsis(deg)": 0.025097650524809053,
        "Eccentricity": 0.0,
        "Inclination(deg)": 53.0,
        "Latitude(deg)": -28.681399951856786,
        "Longitude(deg)": 102.78106683573213,
        "Mean Anomaly(deg)": -36.68635334391647,
        "RAAN(deg)": 229.96264855442197,
        "Satellite Name": "Starlink Shell 1 1029",
        "Satellite Number": 1029,
        "Semi-Major Axis(m)": 6931778.249405717,
        "Time(s)": 720
    },
    {
        "Altitude(m)": 561804.3751553263,
        "Argument of Periapsis(deg)": 0.02544622900432029,
        "Eccentricity": 0.0,
        "Inclination(deg)": 53.0,
        "Latitude(deg)": -28.222691966061234,
        "Longitude(deg)": 103.22542623679631,
        "Mean Anomaly(deg)": -36.0595221403598,
        "RAAN(deg)": 229.96212978434448,
        "Satellite Name": "Starlink Shell 1 1029",
        "Satellite Number": 1029,
        "Semi-Major Axis(m)": 6931778.249405717,
        "Time(s)": 730
    },
    {
        "Altitude(m)": 561630.5077295507,
        "Argument of Periapsis(deg)": 0.02579480748383153,
        "Eccentricity": 0.0,
        "Inclination(deg)": 53.0,
        "Latitude(deg)": -27.76222991613994,
        "Longitude(deg)": 103.66566184080656,
        "Mean Anomaly(deg)": -35.432690936803176,
        "RAAN(deg)": 229.96161101426702,
        "Satellite Name": "Starlink Shell 1 1029",
        "Satellite Number": 1029,
        "Semi-Major Axis(m)": 6931778.249405717,
        "Time(s)": 740
    },
    {
        "Altitude(m)": 561457.1225453974,
        "Argument of Periapsis(deg)": 0.026143385963342765,
        "Eccentricity": 0.0,
        "Inclination(deg)": 53.0,
        "Latitude(deg)": -27.300060564321104,
        "Longitude(deg)": 104.10187209441729,
        "Mean Anomaly(deg)": -34.80585973324631,
        "RAAN(deg)": 229.96109224418953,
        "Satellite Name": "Starlink Shell 1 1029",
        "Satellite Number": 1029,
        "Semi-Major Axis(m)": 6931778.249405717,
        "Time(s)": 750
    }
]